KAITUO 1B               
1 40912U 15049P   17295.52847112  .00001601  00000-0  81646-4 0  9996
2 40912  97.4522 301.3355 0017042 115.5787   3.3231 15.18067777115609
TIANWANG 1C (TW-1C)     
1 40926U 15051B   17295.38739418  .00009964  00000-0  21252-3 0  9993
2 40926  97.2168 334.0387 0012980  69.6542  51.0350 15.45002318116546
TIANWANG 1B (TW-1B)     
1 40927U 15051C   17295.55775059  .00009948  00000-0  22051-3 0  9994
2 40927  97.2259 334.1664 0012977  79.6971  84.7083 15.43862683116509
TIANWANG 1A (TW-1A)     
1 40928U 15051D   17295.47114679  .00004322  00000-0  12062-3 0  9993
2 40928  97.2157 328.9884 0014372  98.3736   7.3312 15.37163394116243
LAPAN-A2 (IO-86)        
1 40931U 15052B   17295.50194350  .00000699  00000-0  83854-5 0  9998
2 40931   5.9992  44.9416 0013229 249.1887 110.6841 14.76549605111817
LQSAT                   
1 40958U 15057A   17295.48207727  .00000059  00000-0  16914-4 0  9994
2 40958  97.9679   8.5076 0018930  22.5587 337.6449 14.72994328109859
CHUBUSAT-2              
1 41338U 16012B   17294.67225838  .00000584  00000-0  39095-4 0  9990
2 41338  31.0045  28.8934 0013917 232.0918 127.8459 14.99841748 91993
CHUBUSAT-3              
1 41339U 16012C   17295.31538902  .00000518  00000-0  33748-4 0  9998
2 41339  31.0110  23.7539 0013741 244.6341 115.2901 15.00040141 92070
OUFTI-1                 
1 41458U 16025C   17294.96693820  .00001157  00000-0  65787-4 0  9993
2 41458  98.1734 339.7683 0171369 225.3880 133.3259 15.03757960 81637
E-ST@R-II               
1 41459U 16025D   17294.93619819  .00002840  00000-0  15421-3 0  9996
2 41459  98.1728 339.6580 0172869 225.9504 132.7377 15.03572510 81619
AAUSAT 4                
1 41460U 16025E   17295.38346893  .00002679  00000-0  14543-3 0  9991
2 41460  98.1671 340.3247 0164562 221.8823 136.9720 15.04670677 81710
NUSAT 1 (LO-87)         
1 41557U 16033B   17295.25127649  .00002618  00000-0  99735-4 0  9999
2 41557  97.4553  14.7478 0012441 279.6046  80.3787 15.27568895 77827
BEESAT-4                
1 41619U 16040W   17294.90135447  .00002508  00000-0  11509-3 0  9992
2 41619  97.4485 356.0052 0011463 353.2619   6.8461 15.21301760 61856
PRATHAM                 
1 41783U 16059A   17295.18035016  .00000115  00000-0  31727-4 0  9993
2 41783  98.1527 355.1447 0034775 121.6680 238.7921 14.62870624 57167
ALSAT 1N                
1 41789U 16059G   17295.40529251  .00000145  00000-0  36718-4 0  9991
2 41789  98.1538 356.1163 0029671 113.7441 246.6885 14.64090080 57223
NAYIF-1 (EO-88)         
1 42017U 17008BX  17294.89260261  .00002753  00000-0  11811-3 0  9999
2 42017  97.4812 356.0454 0007880 129.3394 230.8543 15.23560769 37771
LILACSAT-1              
1 42725U 98067ME  17295.51550817  .00024885  00000-0  31560-3 0  9991
2 42725  51.6373 120.9910 0005403  73.7854 286.3733 15.59277244 23312
MAX VALIER SAT          
1 42778U 17036P   17295.23068888  .00001837  00000-0  86527-4 0  9993
2 42778  97.4377 353.5037 0013017 175.7511 184.3837 15.20716627 18338
